NORAD_CAT_ID,OBJECT_NAME,OBJECT_TYPE,EPOCH,MEAN_MOTION,ECCENTRICITY,INCLINATION,RA_OF_ASC_NODE,ARG_OF_PERICENTER,MEAN_ANOMALY,BSTAR,MEAN_MOTION_DOT,MEAN_MOTION_DDOT,TLE_LINE0,TLE_LINE1,TLE_LINE2,SEMIMAJOR_AXIS,PERIOD,APOGEE,PERIGEE,DECAYED
56783.0,STARLINK-6357,PAYLOAD,2023-08-07 19:11:21,15.69949149,0.0003316,69.9999,220.6412,262.9105,97.1714,0.00025365,0.00030429,0.0,0 STARLINK-6357,1 56783U 23078S   23219.79955143  .00030429  00000-0  25365-3 0  9991,2 56783  69.9999 220.6412 0003316 262.9105  97.1714 15.69949149 11061,6737.179,91.723,361.279,356.81,0.0
56783.0,STARLINK-6357,PAYLOAD,2023-08-07 23:46:36,15.69943824,0.0003352,69.9999,220.1042,263.7412,96.3401,0.00019558,0.00023389,0.0,0 STARLINK-6357,1 56783U 23078S   23219.99070124  .00023389  00000-0  19558-3 0  9994,2 56783  69.9999 220.1042 0003352 263.7412  96.3401 15.69943824 11096,6737.195,91.723,361.318,356.801,0.0
56783.0,STARLINK-6357,PAYLOAD,2023-08-08 10:28:52,15.69959164,0.0003438,69.9998,218.8503,269.5419,90.5383,0.00039892,0.000481,0.0,0 STARLINK-6357,1 56783U 23078S   23220.43671879  .00048100  00000-0  39892-3 0  9990,2 56783  69.9998 218.8503 0003438 269.5419  90.5383 15.69959164 11164,6737.151,91.722,361.332,356.7,0.0
56783.0,STARLINK-6357,PAYLOAD,2023-08-08 12:00:37,15.69950356,0.0003401,69.9999,218.6708,269.1302,90.9504,0.00041919,0.00050551,0.0,0 STARLINK-6357,1 56783U 23078S   23220.50043649  .00050551  00000-0  41919-3 0  9992,2 56783  69.9999 218.6708 0003401 269.1302  90.9504 15.69950356 11171,6737.176,91.723,361.332,356.75,0.0
56783.0,STARLINK-6357,PAYLOAD,2023-08-09 01:46:24,15.69942144,0.0003283,69.9999,217.0586,265.2784,94.8037,0.00047756,0.00057648,0.0,0 STARLINK-6357,1 56783U 23078S   23221.07389006  .00057648  00000-0  47756-3 0  9994,2 56783  69.9999 217.0586 0003283 265.2784  94.8037 15.69942144 11267,6737.2,91.723,361.276,356.853,0.0
56783.0,STARLINK-6357,PAYLOAD,2023-08-09 09:25:09,15.69946714,0.0003657,70.0,216.1629,268.794,91.2837,0.00034159,0.00041103,0.0,0 STARLINK-6357,1 56783U 23078S   23221.39247171  .00041103  00000-0  34159-3 0  9997,2 56783  70.0000 216.1629 0003657 268.7940  91.2837 15.69946714 11310,6737.186,91.723,361.515,356.588,0.0
56783.0,STARLINK-6357,PAYLOAD,2023-08-09 17:03:55,15.69942699,0.0003559,69.9998,215.2679,267.7612,92.3177,0.00017346,0.00020712,0.0,0 STARLINK-6357,1 56783U 23078S   23221.71105453  .00020712  00000-0  17346-3 0  9991,2 56783  69.9998 215.2679 0003559 267.7612  92.3177 15.69942699 11366,6737.198,91.723,361.461,356.665,0.0
56783.0,STARLINK-6357,PAYLOAD,2023-08-10 02:14:25,15.69931815,0.0003523,70.0,214.1933,266.2586,93.8207,8.492e-05,0.00010014,0.0,0 STARLINK-6357,1 56783U 23078S   23222.09335506  .00010014  00000-0  84920-4 0  9994,2 56783  70.0000 214.1933 0003523 266.2586  93.8207 15.69931815 11424,6737.229,91.724,361.468,356.721,0.0
56783.0,STARLINK-6357,PAYLOAD,2023-08-10 11:24:57,15.69921528,0.0002396,70.0004,213.1193,285.9934,74.0998,1.3283e-05,1.385e-05,0.0,0 STARLINK-6357,1 56783U 23078S   23222.47566046  .00001385  00000-0  13283-4 0  9996,2 56783  70.0004 213.1193 0002396 285.9934  74.0998 15.69921528 11481,6737.259,91.724,360.738,357.509,0.0
56783.0,STARLINK-6357,PAYLOAD,2023-08-11 11:52:58,15.6992642,0.0003303,69.9983,210.2517,266.3507,93.7311,1.6562e-05,1.779e-05,0.0,0 STARLINK-6357,1 56783U 23078S   23223.49512344  .00001779  00000-0  16562-4 0  9991,2 56783  69.9983 210.2517 0003303 266.3507  93.7311 15.69926420 11641,6737.245,91.724,361.335,356.884,0.0
56783.0,STARLINK-6357,PAYLOAD,2023-08-12 09:17:30,15.69909358,0.0002737,69.9995,207.7441,273.0687,87.0195,-2.6594e-05,-3.406e-05,0.0,0 STARLINK-6357,1 56783U 23078S   23224.38716378 -.00003406  00000-0 -26594-4 0  9990,2 56783  69.9995 207.7441 0002737 273.0687  87.0195 15.69909358 11787,6737.293,91.725,361.002,357.314,0.0
56783.0,STARLINK-6357,PAYLOAD,2023-08-13 05:10:17,15.69927893,0.0003474,69.9968,205.4139,264.3872,95.6927,1.5935e-05,1.704e-05,0.0,0 STARLINK-6357,1 56783U 23078S   23225.21547505  .00001704  00000-0  15935-4 0  9991,2 56783  69.9968 205.4139 0003474 264.3872  95.6927 15.69927893 11911,6737.24,91.724,361.446,356.765,0.0
56783.0,STARLINK-6357,PAYLOAD,2023-08-14 08:41:49,15.6992449,0.0003624,69.9982,202.1905,265.7564,94.3217,1.216e-05,1.25e-05,0.0,0 STARLINK-6357,1 56783U 23078S   23226.36237744  .00001250  00000-0  12160-4 0  9992,2 56783  69.9982 202.1905 0003624 265.7564  94.3217 15.69924490 12090,6737.25,91.724,361.557,356.673,0.0
56783.0,STARLINK-6357,PAYLOAD,2023-08-15 15:16:51,15.69928168,0.0003391,69.9986,198.6076,268.2697,91.8111,1.7319e-05,1.87e-05,0.0,0 STARLINK-6357,1 56783U 23078S   23227.63671043  .00001870  00000-0  17319-4 0  9996,2 56783  69.9986 198.6076 0003391 268.2697  91.8111 15.69928168 12291,6737.24,91.724,361.389,356.82,0.0
56783.0,STARLINK-6357,PAYLOAD,2023-08-16 21:51:54,15.699272,0.0002974,69.9989,195.0268,265.0808,95.0048,7.62e-06,7.04e-06,0.0,0 STARLINK-6357,1 56783U 23078S   23228.91104788  .00000704  00000-0  76200-5 0  9995,2 56783  69.9989 195.0268 0002974 265.0808  95.0048 15.69927200 12496,6737.242,91.724,361.111,357.104,0.0
56783.0,STARLINK-6357,PAYLOAD,2023-08-17 07:02:24,15.69933259,0.0003058,69.9999,193.9523,265.9399,94.1447,2.3109e-05,2.568e-05,0.0,0 STARLINK-6357,1 56783U 23078S   23229.29334282  .00002568  00000-0  23109-4 0  9990,2 56783  69.9999 193.9523 0003058 265.9399  94.1447 15.69933259 12557,6737.225,91.724,361.15,357.03,0.0
56783.0,STARLINK-6357,PAYLOAD,2023-08-18 01:23:26,15.6991948,0.0002859,70.0,191.8005,268.784,91.3028,1.8121e-06,5e-08,0.0,0 STARLINK-6357,1 56783U 23078S   23230.05795123  .00000005  00000-0  18121-5 0  9994,2 56783  70.0000 191.8005 0002859 268.7840  91.3028 15.69919480 12672,6737.264,91.724,361.056,357.203,0.0
56783.0,STARLINK-6357,PAYLOAD,2023-08-18 15:09:12,15.69929917,0.0002788,70.0009,190.1886,277.9704,82.1175,1.8207e-05,1.978e-05,0.0,0 STARLINK-6357,1 56783U 23078S   23230.63139750  .00001978  00000-0  18207-4 0  9990,2 56783  70.0009 190.1886 0002788 277.9704  82.1175 15.69929917 12769,6737.235,91.724,360.978,357.221,0.0
56783.0,STARLINK-6357,PAYLOAD,2023-08-19 00:19:44,15.6989603,0.0003728,70.0016,189.1146,286.5439,73.5347,-4.8122e-05,-5.989e-05,0.0,0 STARLINK-6357,1 56783U 23078S   23231.01371416 -.00005989  00000-0 -48122-4 0  9997,2 56783  70.0016 189.1146 0003728 286.5439  73.5347 15.69896030 12821,6737.331,91.726,361.708,356.685,0.0
56783.0,STARLINK-6357,PAYLOAD,2023-08-19 06:26:45,15.6991295,0.0003102,69.9981,188.3966,266.7563,93.3277,-1.9126e-05,-2.51e-05,0.0,0 STARLINK-6357,1 56783U 23078S   23231.26857960 -.00002510  00000-0 -19126-4 0  9996,2 56783  69.9981 188.3966 0003102 266.7563  93.3277 15.69912950 12860,6737.283,91.725,361.238,357.058,0.0
56783.0,STARLINK-6357,PAYLOAD,2023-08-19 20:12:30,15.6992508,0.00037,69.9976,186.785,269.9669,90.1102,1.5816e-05,1.689e-05,0.0,0 STARLINK-6357,1 56783U 23078S   23231.84201729  .00001689  00000-0  15816-4 0  9992,2 56783  69.9976 186.7850 0003700 269.9669  90.1102 15.69925080 12954,6737.248,91.724,361.606,356.621,0.0
56783.0,STARLINK-6357,PAYLOAD,2023-08-20 23:44:02,15.69920484,0.0003367,69.997,183.5604,270.3222,89.7588,1.1121e-05,1.124e-05,0.0,0 STARLINK-6357,1 56783U 23078S   23232.98892151  .00001124  00000-0  11121-4 0  9992,2 56783  69.9970 183.5604 0003367 270.3222  89.7588 15.69920484 13136,6737.261,91.724,361.395,356.858,0.0
56783.0,STARLINK-6357,PAYLOAD,2023-08-22 00:12:05,15.69913856,0.0003591,69.9976,180.6932,269.7657,90.3127,-5.3376e-06,-8.54e-06,0.0,0 STARLINK-6357,1 56783U 23078S   23234.00839442 -.00000854  00000-0 -53376-5 0  9991,2 56783  69.9976 180.6932 0003591 269.7657  90.3127 15.69913856 13296,6737.28,91.725,361.565,356.726,0.0
56783.0,STARLINK-6357,PAYLOAD,2023-08-22 23:08:21,15.69923083,0.0002964,69.9983,178.0067,263.6529,96.4329,2.2319e-05,2.472e-05,0.0,0 STARLINK-6357,1 56783U 23078S   23234.96413779  .00002472  00000-0  22319-4 0  9995,2 56783  69.9983 178.0067 0002964 263.6529  96.4329 15.69923083 13449,6737.254,91.724,361.116,357.122,0.0
56783.0,STARLINK-6357,PAYLOAD,2023-08-24 05:43:24,15.69909694,0.0003441,69.9976,174.4217,264.185,95.8953,1.9439e-05,2.124e-05,0.0,0 STARLINK-6357,1 56783U 23078S   23236.23847844  .00002124  00000-0  19439-4 0  9994,2 56783  69.9976 174.4217 0003441 264.1850  95.8953 15.69909694 13383,6737.292,91.725,361.476,356.839,0.0
56783.0,STARLINK-6357,PAYLOAD,2023-08-24 22:32:40,15.69930272,0.0003925,69.9968,172.4504,279.5996,80.4756,1.012e-05,1.004e-05,0.0,0 STARLINK-6357,1 56783U 23078S   23236.93935369  .00001004  00000-0  10120-4 0  9995,2 56783  69.9968 172.4504 0003925 279.5996  80.4756 15.69930272 13757,6737.233,91.724,361.743,356.454,0.0
56783.0,STARLINK-6357,PAYLOAD,2023-08-25 06:11:26,15.69923351,0.000373,69.9983,171.5572,263.2222,96.855,4.1913e-06,2.91e-06,0.0,0 STARLINK-6357,1 56783U 23078S   23237.25794023  .00000291  00000-0  41913-5 0  9993,2 56783  69.9983 171.5572 0003730 263.2222  96.8550 15.69923351 13804,6737.253,91.724,361.631,356.605,0.0
56783.0,STARLINK-6357,PAYLOAD,2023-08-25 23:00:42,15.69913185,0.0003529,69.9979,169.5859,274.0609,86.0183,1.4086e-05,1.48e-05,0.0,0 STARLINK-6357,1 56783U 23078S   23237.95883052  .00001480  00000-0  14086-4 0  9992,2 56783  69.9979 169.5859 0003529 274.0609  86.0183 15.69913185 13918,6737.282,91.725,361.525,356.77,0.0
56783.0,STARLINK-6357,PAYLOAD,2023-08-26 05:07:42,15.69923178,0.0003887,69.9965,168.8687,260.154,99.9216,2.7354e-05,3.077e-05,0.0,0 STARLINK-6357,1 56783U 23078S   23238.21368622  .00003077  00000-0  27354-4 0  9999,2 56783  69.9965 168.8687 0003887 260.1540  99.9216 15.69923178 13958,6737.254,91.724,361.738,356.5,0.0
56783.0,STARLINK-6357,PAYLOAD,2023-08-26 20:25:13,15.69927629,0.0003536,69.9981,167.0776,269.2355,90.8435,1.9994e-05,2.192e-05,0.0,0 STARLINK-6357,1 56783U 23078S   23238.85085365  .00002192  00000-0  19994-4 0  9997,2 56783  69.9981 167.0776 0003536 269.2355  90.8435 15.69927629 13791,6737.241,91.724,361.488,356.724,0.0
